<?xml version="1.0" encoding="UTF-8"?>
<kml xmlns="http://www.opengis.net/kml/2.2">
  <Document>
    <name>Gelora Bung Karno</name>
    <Style id="poly-000000-1200-77-nodesc-normal">
      <LineStyle>
        <color>ff000000</color>
        <width>1.2</width>
      </LineStyle>
      <PolyStyle>
        <color>4d000000</color>
        <fill>1</fill>
        <outline>1</outline>
      </PolyStyle>
      <BalloonStyle>
        <text><![CDATA[<h3>$[name]</h3>]]></text>
      </BalloonStyle>
    </Style>
    <Style id="poly-000000-1200-77-nodesc-highlight">
      <LineStyle>
        <color>ff000000</color>
        <width>1.8</width>
      </LineStyle>
      <PolyStyle>
        <color>4d000000</color>
        <fill>1</fill>
        <outline>1</outline>
      </PolyStyle>
      <BalloonStyle>
        <text><![CDATA[<h3>$[name]</h3>]]></text>
      </BalloonStyle>
    </Style>
    <StyleMap id="poly-000000-1200-77-nodesc">
      <Pair>
        <key>normal</key>
        <styleUrl>#poly-000000-1200-77-nodesc-normal</styleUrl>
      </Pair>
      <Pair>
        <key>highlight</key>
        <styleUrl>#poly-000000-1200-77-nodesc-highlight</styleUrl>
      </Pair>
    </StyleMap>
    <Placemark>
      <name>Gelora Bung Karno</name>
      <styleUrl>#poly-000000-1200-77-nodesc</styleUrl>
      <Polygon>
        <outerBoundaryIs>
          <LinearRing>
            <tessellate>1</tessellate>
            <coordinates>
              106.7982589,-6.2145709,0
              106.798216,-6.2150828,0
              106.7982589,-6.2157654,0
              106.7983877,-6.2169173,0
              106.798216,-6.2179413,0
              106.7983877,-6.2193491,0
              106.7983877,-6.2205437,0
              106.7990743,-6.2212263,0
              106.8002759,-6.2215676,0
              106.8018209,-6.2221649,0
              106.8029796,-6.2226768,0
              106.8038808,-6.2235301,0
              106.8045246,-6.2248099,0
              106.8053829,-6.224298,0
              106.8063699,-6.2234447,0
              106.807357,-6.2229328,0
              106.808344,-6.2223355,0
              106.8090307,-6.2216956,0
              106.808344,-6.2209703,0
              106.8083011,-6.2197758,0
              106.808344,-6.2186665,0
              106.8083869,-6.2171307,0
              106.8082153,-6.2157654,0
              106.8069278,-6.2156801,0
              106.8059408,-6.2155948,0
              106.8061124,-6.2147842,0
              106.8062841,-6.213035,0
              106.8056833,-6.2131203,0
              106.8033229,-6.213547,0
              106.8018209,-6.2138456,0
              106.7998039,-6.2141442,0
              106.7982589,-6.2145709,0
            </coordinates>
          </LinearRing>
        </outerBoundaryIs>
      </Polygon>
    </Placemark>
  </Document>
</kml>
