<?xml version="1.0" encoding="UTF-8"?>
<kml xmlns="http://www.opengis.net/kml/2.2">
  <Document>
    <name>Taman Monas</name>
    <Style id="poly-000000-1200-77-nodesc-normal">
      <LineStyle>
        <color>ff000000</color>
        <width>1.2</width>
      </LineStyle>
      <PolyStyle>
        <color>4d000000</color>
        <fill>1</fill>
        <outline>1</outline>
      </PolyStyle>
      <BalloonStyle>
        <text><![CDATA[<h3>$[name]</h3>]]></text>
      </BalloonStyle>
    </Style>
    <Style id="poly-000000-1200-77-nodesc-highlight">
      <LineStyle>
        <color>ff000000</color>
        <width>1.8</width>
      </LineStyle>
      <PolyStyle>
        <color>4d000000</color>
        <fill>1</fill>
        <outline>1</outline>
      </PolyStyle>
      <BalloonStyle>
        <text><![CDATA[<h3>$[name]</h3>]]></text>
      </BalloonStyle>
    </Style>
    <StyleMap id="poly-000000-1200-77-nodesc">
      <Pair>
        <key>normal</key>
        <styleUrl>#poly-000000-1200-77-nodesc-normal</styleUrl>
      </Pair>
      <Pair>
        <key>highlight</key>
        <styleUrl>#poly-000000-1200-77-nodesc-highlight</styleUrl>
      </Pair>
    </StyleMap>
    <Placemark>
      <name>Taman Monas</name>
      <styleUrl>#poly-000000-1200-77-nodesc</styleUrl>
      <Polygon>
        <outerBoundaryIs>
          <LinearRing>
            <tessellate>1</tessellate>
            <coordinates>
              106.8233382,-6.1714271,0
              106.8232523,-6.1722804,0
              106.8231665,-6.1728778,0
              106.8231236,-6.1736458,0
              106.8231236,-6.1746271,0
              106.8232094,-6.1754804,0
              106.8231665,-6.1762057,0
              106.8232094,-6.1769311,0
              106.8230807,-6.1775284,0
              106.8229519,-6.1782537,0
              106.8231236,-6.1791924,0
              106.8230378,-6.1797897,0
              106.8233382,-6.180387,0
              106.8241536,-6.180387,0
              106.8250977,-6.180387,0
              106.8263852,-6.1803017,0
              106.8273722,-6.1803444,0
              106.8282305,-6.180387,0
              106.8289172,-6.1804297,0
              106.8296467,-6.1804297,0
              106.8302905,-6.1803444,0
              106.8311917,-6.1803017,0
              106.8311488,-6.180003,0
              106.8311917,-6.1794484,0
              106.8311917,-6.178851,0
              106.8303763,-6.1782964,0
              106.8299042,-6.1775711,0
              106.8299042,-6.1767177,0
              106.8299901,-6.1757364,0
              106.8299901,-6.1750538,0
              106.8299901,-6.1743284,0
              106.8299471,-6.1734324,0
              106.8294751,-6.1732191,0
              106.8289601,-6.1729204,0
              106.8292605,-6.1722378,0
              106.8293463,-6.1716831,0
              106.8288743,-6.1715551,0
              106.8281018,-6.1714698,0
              106.8272006,-6.1714698,0
              106.8261277,-6.1714271,0
              106.8252264,-6.1714271,0
              106.8243252,-6.1714271,0
              106.8233382,-6.1714271,0
            </coordinates>
          </LinearRing>
        </outerBoundaryIs>
      </Polygon>
    </Placemark>
  </Document>
</kml>
