<?xml version="1.0" encoding="UTF-8"?>
<kml xmlns="http://www.opengis.net/kml/2.2">
  <Document>
    <name>Taman Mini Indonesia Indah</name>
    <Style id="poly-000000-1200-77-nodesc-normal">
      <LineStyle>
        <color>ff000000</color>
        <width>1.2</width>
      </LineStyle>
      <PolyStyle>
        <color>4d000000</color>
        <fill>1</fill>
        <outline>1</outline>
      </PolyStyle>
      <BalloonStyle>
        <text><![CDATA[<h3>$[name]</h3>]]></text>
      </BalloonStyle>
    </Style>
    <Style id="poly-000000-1200-77-nodesc-highlight">
      <LineStyle>
        <color>ff000000</color>
        <width>1.8</width>
      </LineStyle>
      <PolyStyle>
        <color>4d000000</color>
        <fill>1</fill>
        <outline>1</outline>
      </PolyStyle>
      <BalloonStyle>
        <text><![CDATA[<h3>$[name]</h3>]]></text>
      </BalloonStyle>
    </Style>
    <StyleMap id="poly-000000-1200-77-nodesc">
      <Pair>
        <key>normal</key>
        <styleUrl>#poly-000000-1200-77-nodesc-normal</styleUrl>
      </Pair>
      <Pair>
        <key>highlight</key>
        <styleUrl>#poly-000000-1200-77-nodesc-highlight</styleUrl>
      </Pair>
    </StyleMap>
    <Placemark>
      <name>Taman Mini Indonesia Indah
</name>
      <styleUrl>#poly-000000-1200-77-nodesc</styleUrl>
      <Polygon>
        <outerBoundaryIs>
          <LinearRing>
            <tessellate>1</tessellate>
            <coordinates>
              106.8903787,-6.3037209,0
              106.8900997,-6.3037156,0
              106.8897081,-6.3037369,0
              106.8893916,-6.3037849,0
              106.8893112,-6.3039822,0
              106.8893112,-6.3041795,0
              106.8893112,-6.3044034,0
              106.8893433,-6.3046167,0
              106.8893165,-6.3049366,0
              106.8892629,-6.3051926,0
              106.8892682,-6.3052672,0
              106.8894989,-6.3053365,0
              106.8894882,-6.3050486,0
              106.8894774,-6.3047767,0
              106.8894989,-6.3044727,0
              106.8895257,-6.3041742,0
              106.8895847,-6.3039929,0
              106.8898476,-6.3039929,0
              106.8900997,-6.3040195,0
              106.8903411,-6.3040409,0
              106.890486,-6.3040622,0
              106.890486,-6.3039769,0
              106.8904377,-6.3038596,0
              106.8904001,-6.3037743,0
              106.8903787,-6.3037209,0
            </coordinates>
          </LinearRing>
        </outerBoundaryIs>
      </Polygon>
    </Placemark>
  </Document>
</kml>
