{"type":"FeatureCollection","features":[{"type":"Feature","properties":{"luas":"662,33 ","nama":"jakarta","populasi":"10,67 Juta","tahun":2025},"geometry":{"coordinates":[106.83468290933916,-6.171935033707172],"type":"Point"},"id":0},{"type":"Feature","properties":{"luas":"118,50","nama":"bogor","populasi":"1,12 juta","tahun":2025},"geometry":{"coordinates":[106.79647947867926,-6.598441795594553],"type":"Point"},"id":1},{"type":"Feature","properties":{"luas":"164,86","nama":"tanggerang","populasi":"1,47 juta","tahun":2025},"geometry":{"coordinates":[106.63539125592843,-6.183189634148889],"type":"Point"},"id":2},{"type":"Feature","properties":{"luas":"164,55","nama":"tanggerang selatan","populasi":"1,93 juta","tahun":2025},"geometry":{"coordinates":[106.70466024593395,-6.330704208015987],"type":"Point"},"id":3},{"type":"Feature","properties":{"luas":"200,29","nama":"depok","populasi":"2,01 Juta","tahun":2025},"geometry":{"coordinates":[106.80922172557581,-6.395284962324595],"type":"Point"},"id":4},{"type":"Feature","properties":{"luas":"213,12 ","nama":"bekasi","populasi":"2,59 Juta","tahun":2026},"geometry":{"coordinates":[106.98308056009728,-6.229557736472543],"type":"Point"},"id":5}]}